[Satellite]
VERSION=1.1
NAME=GENESIS 2
NICKNAME=GENESIS 2
TLE1=1 31789U 07028A   19317.17209761  .00000317  00000-0  25991-4 0  9990
TLE2=2 31789  64.5031 333.2958 0052986 270.7351  88.7700 15.17060034682202
STATUS=0
